FENGYUN 1C DEB          
1 32093U 99025CQK 17344.07308301  .00000206  00000-0  91694-4 0  9994
2 32093  98.7416  86.9969 0086070 280.0261  79.1218 14.31190632546330
